1620 Geographos,e,13.340694,337.345265,276.752493,1.24543868,0,0.33554418,246.036375,8/10/1999,2000.0,15.6,0.15
1626 Sadeya,e,25.313887,279.651959,148.665922,2.36257148,0,0.27553004,21.079485,8/10/1999,2000.0,10.5,0.15
1627 Ivar,e,8.440644,133.266767,167.465613,1.86323456,0,0.39662203,191.671625,8/10/1999,2000.0,13.2,0.6
1631 Kopff,e,7.493847,17.035986,314.738466,2.23526448,0,0.21314769,321.066066,8/10/1999,2000.0,12.2,0.15
1640 Nemo,e,7.115843,355.645069,354.403155,2.28892768,0,0.34286583,302.795482,8/10/1999,2000.0,13.1,0.15
1653 Yakhontovia,e,4.069091,304.215381,89.04567,2.6106616,0,0.32368617,222.07473,8/10/1999,2000.0,11.4,0.15
1655 Comas Sola,e,9.578949,111.448751,322.855343,2.78258941,0,0.23200212,2.219037,8/10/1999,2000.0,11.04,0.15
1656 Suomi,e,25.067507,175.666772,287.411253,1.87748331,0,0.12352,166.280614,8/10/1999,2000.0,12.4,0.15
1659 Punkaharju,e,16.470034,338.561649,35.718903,2.78398495,0,0.25827867,284.033845,8/10/1999,2000.0,10.1,0.15
1660 Wood,e,20.552073,213.127347,276.585906,2.39294892,0,0.30428492,227.100793,8/10/1999,2000.0,11.9,0.15
1664 Felix,e,6.116679,44.361768,106.62632,2.34105109,0,0.22311724,254.205174,8/10/1999,2000.0,12.1,0.15
1685 Toro,e,9.378371,274.410894,126.945925,1.36697541,0,0.43596743,284.881218,8/10/1999,2000.0,14.23,0.15
1693 Hertzsprung,e,11.935757,70.364242,234.675367,2.79715278,0,0.27361857,215.268653,8/10/1999,2000.0,10.97,0.15
1694 Kaiser,e,11.102484,13.656421,356.155358,2.39615525,0,0.25764596,170.467686,8/10/1999,2000.0,11.46,0.15
1715 Salli,e,11.462829,39.100031,209.526417,2.40091048,0,0.23925476,147.421595,8/10/1999,2000.0,12.1,0.15
1727 Mette,e,22.894095,133.134051,312.863606,1.85410062,0,0.10210511,266.289336,8/10/1999,2000.0,12.7,0.15
1735 ITA,e,15.594673,9.550005,278.842015,3.1463516,0,0.12521117,106.242034,8/10/1999,2000.0,9.4,0.15
1738 Oosterhoff,e,4.878856,44.315426,283.827569,2.18299244,0,0.20309848,141.034295,8/10/1999,2000.0,12.3,0.15
1747 Wright,e,21.414107,268.478837,340.255369,1.70934173,0,0.11034444,143.492514,8/10/1999,2000.0,13.35,0.15
1803 Zwicky,e,21.557435,337.568713,253.500369,2.34802022,0,0.24993267,309.708465,8/10/1999,2000.0,12,0.15
1819 Laputa,e,23.777331,122.582869,166.389154,3.15464075,0,0.2178248,62.271524,8/10/1999,2000.0,10.2,0.15
1862 Apollo,e,6.356375,35.901791,285.677659,1.47115219,0,0.55989778,208.11081,8/10/1999,2000.0,16.25,0.09
1863 Antinous,e,18.419986,347.512683,266.941691,2.26066208,0,0.60558245,24.64704,8/10/1999,2000.0,15.54,0.15
1864 Daedalus,e,22.182327,6.772331,325.476639,1.46114003,0,0.61467647,299.32851,8/10/1999,2000.0,14.85,0.15
1865 Cerberus,e,16.090412,213.025837,325.164034,1.080092,0,0.46700919,169.551785,8/10/1999,2000.0,16.84,0.15
1866 Sisyphus,e,41.168656,63.673682,293.005569,1.89344046,0,0.53917531,109.5169,8/10/1999,2000.0,13,0.15
1884 Skip,e,21.785867,353.88268,110.306999,2.42618777,0,0.26194832,25.323982,8/10/1999,2000.0,11.7,0.15
1915 Quetzalcoatl,e,20.436986,163.058194,347.899877,2.53983174,0,0.57237218,207.84439,8/10/1999,2000.0,18.97,0.1
1916 Boreas,e,12.848726,340.900373,335.317449,2.27242926,0,0.44972301,154.631696,8/10/1999,2000.0,14.93,0.15
1917 Cuyo,e,23.944376,188.441456,194.308802,2.14999507,0,0.50438684,38.999429,8/10/1999,2000.0,13.9,0.15
1922 Zulu,e,35.409808,226.563324,31.576768,3.24106957,0,0.4785044,185.02918,8/10/1999,2000.0,12.2,0.15
1943 Anteros,e,8.702676,246.438967,338.17803,1.4302644,0,0.2558184,129.277834,8/10/1999,2000.0,15.75,0.15
1946 Walraven,e,8.167714,17.466044,339.713306,2.2939295,0,0.2350436,169.87593,8/10/1999,2000.0,11.9,0.15
1951 Lick,e,39.089847,130.803253,140.431675,1.39040696,0,0.061686,213.964779,8/10/1999,2000.0,14.7,0.15
1954 Kukarkin,e,14.864029,278.884901,68.794788,2.9337144,0,0.31272429,114.578975,8/10/1999,2000.0,11.3,0.15
1963 Bezovec,e,25.037136,107.069255,355.768394,2.42131437,0,0.21062236,219.638625,8/10/1999,2000.0,10.91,0.15
1980 Tezcatlipoca,e,26.85344,246.719347,115.332302,1.70972675,0,0.36513119,298.618803,8/10/1999,2000.0,13.92,0.15
1981 Midas,e,39.841748,357.141688,267.705869,1.77649085,0,0.64975806,28.064701,8/10/1999,2000.0,15.5,0.15
1987 Kaplan,e,23.655201,314.460395,38.12313,2.38242704,0,0.22744693,269.094244,8/10/1999,2000.0,11.4,0.15
2000 Herschel,e,22.743063,292.241495,129.745323,2.3818597,0,0.29745149,162.804781,8/10/1999,2000.0,11.25,0.15
2014 Vasilevskis,e,21.406541,204.360384,82.572041,2.40346427,0,0.2829266,349.002833,8/10/1999,2000.0,11.7,0.15
2019 van Albada,e,4.042275,252.426501,24.605132,2.24224451,0,0.16497944,83.170996,8/10/1999,2000.0,11.9,0.15
2035 Stearns,e,27.749053,77.139892,200.485237,1.88421064,0,0.13106335,62.618037,8/10/1999,2000.0,12.61,0.15
2061 Anza,e,3.765999,207.789757,156.405612,2.26549378,0,0.53695696,143.550093,8/10/1999,2000.0,16.56,0.15
2062 Aten,e,18.931159,108.65257,147.882269,0.96645296,0,0.18255491,158.715449,8/10/1999,2000.0,16.8,0.15
2063 Bacchus,e,9.432203,33.239878,55.171629,1.07806579,0,0.34940475,61.575587,8/10/1999,2000.0,17.1,0.15
2064 Thomsen,e,5.693197,302.368836,2.151118,2.17882975,0,0.32875809,279.629677,8/10/1999,2000.0,13.1,0.15
2078 Nanking,e,20.160387,287.455594,98.853139,2.36906179,0,0.37389666,302.736955,8/10/1999,2000.0,12.1,0.15
2089 Cetacea,e,15.40007,102.874842,286.999576,2.53457439,0,0.15468669,144.4142,8/10/1999,2000.0,10.98,0.15
2100 Ra-Shalom,e,15.751347,170.917269,355.98414,0.83201413,0,0.43657539,22.204378,8/10/1999,2000.0,16.05,0.12
2101 Adonis,e,1.350421,350.672377,42.342909,1.87397687,0,0.76488302,297.398987,8/10/1999,2000.0,18.7,0.15
2102 Tantalus,e,64.006979,94.394603,61.611655,1.29001256,0,0.29870297,9.454254,8/10/1999,2000.0,16.2,0.15
2105 Gudy,e,29.307067,273.767439,156.038474,2.38906909,0,0.15007577,214.831349,8/10/1999,2000.0,11.3,0.15
2131 Mayall,e,33.992229,306.132667,38.326785,1.88707239,0,0.11100364,89.1917,8/10/1999,2000.0,12.72,0.15
2134 Dennispalm,e,31.284704,11.87946,119.5787,2.63892158,0,0.2561726,83.01429,8/10/1999,2000.0,11.5,0.15
2135 Aristaeus,e,23.046757,191.370507,290.718012,1.5997708,0,0.50289005,40.439836,8/10/1999,2000.0,17.94,0.15
2183 Neufang,e,18.244439,88.463262,237.96057,2.99694466,0,0.37374616,248.85066,8/10/1999,2000.0,11.5,0.15
2201 Oljato,e,2.516991,76.64958,96.220026,2.17195518,0,0.71300906,25.984061,8/10/1999,2000.0,15.25,0.15
2204 Lyyli,e,20.530966,160.999558,282.432804,2.59109697,0,0.4055218,230.679033,8/10/1999,2000.0,12.7,0.15
2212 Hephaistos,e,11.775711,28.400358,208.390207,2.16690846,0,0.8338139,216.203912,8/10/1999,2000.0,13.87,0.15
2329 Orthos,e,24.428643,169.500804,145.833973,2.40163763,0,0.65887075,56.159349,8/10/1999,2000.0,14.9,0.15
2335 James,e,36.337043,20.122266,79.378179,2.12369419,0,0.35951819,329.751813,8/10/1999,2000.0,13.8,0.15
2340 Hathor,e,5.849989,211.63665,39.798315,0.84378207,0,0.44995544,237.745964,8/10/1999,2000.0,19.2,0.15
2368 Beltrovata,e,5.2505,287.778369,42.24419,2.10413757,0,0.41393485,70.120744,8/10/1999,2000.0,15.21,0.15
2382 Nonie,e,31.045344,246.359699,66.353554,2.7594453,0,0.32976033,266.448487,8/10/1999,2000.0,11.4,0.15
2423 Ibarruri,e,4.059891,265.394929,79.84503,2.18797925,0,0.28287745,106.815838,8/10/1999,2000.0,13.2,0.15
2606 Odessa,e,12.357109,197.710191,351.763825,2.76667557,0,0.2594883,34.078894,8/10/1999,2000.0,11.3,0.15
2608 Seneca,e,15.226219,169.439558,34.483956,2.50157157,0,0.58005561,157.994798,8/10/1999,2000.0,17.52,0.15
2629 Rudra,e,23.437954,343.584266,280.556908,1.74025403,0,0.2292596,147.351077,8/10/1999,2000.0,14.5,0.15
2651 Karen,e,17.75757,126.492293,277.065944,2.98504732,0,0.32610698,210.549044,8/10/1999,2000.0,11.1,0.15
2791 Paradise,e,31.045495,336.230118,165.717558,2.39738784,0,0.17105076,18.240637,8/10/1999,2000.0,11.5,0.15
2937 Gibbs,e,21.789106,265.957738,71.506733,2.31971503,0,0.30197374,121.823533,8/10/1999,2000.0,12.9,0.15
3102 Krok,e,8.410028,172.382915,154.370582,2.1526405,0,0.44759992,248.50121,8/10/1999,2000.0,15.6,0.15
3103 Eger,e,20.93406,129.888641,253.837761,1.40567584,0,0.35459717,257.615403,8/10/1999,2000.0,15.38,0.15
3122 Florence,e,22.177965,336.221364,27.566931,1.76857372,0,0.42278011,105.921278,8/10/1999,2000.0,14.2,0.15
3178 Yoshitsune,e,6.808758,242.230491,241.522044,2.70834635,0,0.38280534,77.228694,8/10/1999,2000.0,11.9,0.15
3198 Wallonia,e,17.977911,83.752849,40.228528,2.17998943,0,0.23886161,153.110585,8/10/1999,2000.0,12.3,0.15
3199 Nefertiti,e,32.974015,340.096518,53.321618,1.57448797,0,0.28373582,169.13658,8/10/1999,2000.0,14.84,0.15
3200 Phaethon,e,22.11492,265.553132,321.851282,1.27136266,0,0.890134,43.250807,8/10/1999,2000.0,14.6,0.15
3288 Seleucus,e,5.934971,218.794086,349.214293,2.0318857,0,0.45814202,352.481532,8/10/1999,2000.0,15.3,0.15
3352 McAuliffe,e,4.771478,107.454105,15.830268,1.87921568,0,0.36866325,67.536863,8/10/1999,2000.0,15.8,0.15
3360 1981 VA,e,21.720145,245.455533,60.677922,2.46543493,0,0.74290295,230.865026,8/10/1999,2000.0,16.3,0.15
3361 Orpheus,e,2.683152,189.741162,301.600861,1.20925707,0,0.32258471,49.514709,8/10/1999,2000.0,19.03,0.15
3362 Khufu,e,9.91277,152.629684,54.859572,0.98958722,0,0.46865356,147.774282,8/10/1999,2000.0,18.3,0.15
3401 Vanphilos,e,21.812913,322.555787,108.666047,2.36670796,0,0.35948532,278.238775,8/10/1999,2000.0,12.6,0.15
3551 Verenia,e,9.506245,173.977278,193.107566,2.09258719,0,0.4871072,88.118113,8/10/1999,2000.0,16.75,0.15
3552 Don Quixote,e,30.826705,350.63185,316.704592,4.23243848,0,0.7140186,302.654464,8/10/1999,2000.0,13,0.15
3553 Mera,e,36.767626,232.615944,288.892217,1.64456585,0,0.32024577,310.112596,8/10/1999,2000.0,16.5,0.15
3554 Amun,e,23.363867,358.69843,359.355148,0.97368178,0,0.28041232,149.819208,8/10/1999,2000.0,15.82,0.15
3581 Alvarez,e,28.80876,217.875506,107.390645,2.77453276,0,0.40652261,342.264779,8/10/1999,2000.0,12.1,0.15
3671 Dionysus,e,13.616185,82.40652,203.712786,2.19584848,0,0.54300619,230.112104,8/10/1999,2000.0,16.3,0.15
3674 Erbisbuhl,e,21.041051,297.206241,97.828435,2.36021493,0,0.37441733,312.867696,8/10/1999,2000.0,12.1,0.15
3682 Welther,e,13.564278,256.031696,113.278156,2.75877378,0,0.31869018,185.218346,8/10/1999,2000.0,11.5,0.15
